[{"OBJECT_NAME":"YAOGAN-36 02B","OBJECT_ID":"2022-133B","EPOCH":"2026-03-09T22:42:31.775904","MEAN_MOTION":15.30199518,"ECCENTRICITY":0.00056841,"INCLINATION":34.9983,"RA_OF_ASC_NODE":22.5268,"ARG_OF_PERICENTER":273.0351,"MEAN_ANOMALY":86.9715,"EPHEMERIS_TYPE":0,"CLASSIFICATION_TYPE":"U","NORAD_CAT_ID":54043,"ELEMENT_SET_NO":999,"REV_AT_EPOCH":18962,"BSTAR":0.00051218814,"MEAN_MOTION_DOT":0.00015352,"MEAN_MOTION_DDOT":0},{"OBJECT_NAME":"STARLINK-35095","OBJECT_ID":"2025-192X","EPOCH":"2026-03-09T17:18:40.492800","MEAN_MOTION":15.30192772,"ECCENTRICITY":0.00015335,"INCLINATION":53.1604,"RA_OF_ASC_NODE":232.5852,"ARG_OF_PERICENTER":53.4734,"MEAN_ANOMALY":306.6408,"EPHEMERIS_TYPE":0,"CLASSIFICATION_TYPE":"U","NORAD_CAT_ID":65425,"ELEMENT_SET_NO":999,"REV_AT_EPOCH":2938,"BSTAR":0.00064002122,"MEAN_MOTION_DOT":0.0001864,"MEAN_MOTION_DDOT":0}]
